{
  "type": "FeatureCollection",
  "features": [
    {
      "type": "Feature",
      "properties": {
        "norad_id": 55973,
        "name": "TIANMU-1 03",
        "group": "weather",
        "lat": -73.05770900864341,
        "lon": 168.4509807793117,
        "alt_km": 454.28065467723263,
        "timestamp": "2025-12-06T07:31:39.888013+00:00",
        "meta_object_name": "TIANMU-1 03",
        "meta_object_id": "2023-039A",
        "meta_epoch": "2025-12-05T06:54:39.026016",
        "meta_mean_motion": 15.40596611,
        "meta_eccentricity": 0.00045237,
        "meta_inclination": 97.5105,
        "meta_ra_of_asc_node": 141.7335,
        "meta_arg_of_pericenter": 82.1412,
        "meta_mean_anomaly": 278.0347,
        "meta_ephemeris_type": 0,
        "meta_classification_type": "U",
        "meta_norad_cat_id": 55973,
        "meta_element_set_no": 999,
        "meta_rev_at_epoch": 15091,
        "meta_bstar": 0.00061224344,
        "meta_mean_motion_dot": 0.00024882,
        "meta_mean_motion_ddot": 0,
        "tle_line1": "1 55973U 23039A   25339.28795169  .00024882  00000+0  61224-3 0  9996",
        "tle_line2": "2 55973  97.5105 141.7335 0004523  82.1412 278.0347 15.40596611150919"
      },
      "geometry": {
        "type": "Point",
        "coordinates": [
          168.4509807793117,
          -73.05770900864341
        ]
      }
    },
    {
      "type": "Feature",
      "properties": {
        "norad_id": 55974,
        "name": "TIANMU-1 04",
        "group": "weather",
        "lat": 31.088436581615838,
        "lon": 137.4222852377034,
        "alt_km": 438.99750186533583,
        "timestamp": "2025-12-06T07:31:39.888024+00:00",
        "meta_object_name": "TIANMU-1 04",
        "meta_object_id": "2023-039B",
        "meta_epoch": "2025-12-05T06:27:22.381920",
        "meta_mean_motion": 15.40926994,
        "meta_eccentricity": 0.00052483,
        "meta_inclination": 97.5036,
        "meta_ra_of_asc_node": 140.9082,
        "meta_arg_of_pericenter": 78.4463,
        "meta_mean_anomaly": 281.7372,
        "meta_ephemeris_type": 0,
        "meta_classification_type": "U",
        "meta_norad_cat_id": 55974,
        "meta_element_set_no": 999,
        "meta_rev_at_epoch": 15091,
        "meta_bstar": 0.00060656948,
        "meta_mean_motion_dot": 0.00024924,
        "meta_mean_motion_ddot": 0,
        "tle_line1": "1 55974U 23039B   25339.26900905  .00024924  00000+0  60657-3 0  9997",
        "tle_line2": "2 55974  97.5036 140.9082 0005248  78.4463 281.7372 15.40926994150912"
      },
      "geometry": {
        "type": "Point",
        "coordinates": [
          137.4222852377034,
          31.088436581615838
        ]
      }
    },
    {
      "type": "Feature",
      "properties": {
        "norad_id": 55975,
        "name": "TIANMU-1 05",
        "group": "weather",
        "lat": 70.60484406493136,
        "lon": 120.47108019154739,
        "alt_km": 434.78704233136887,
        "timestamp": "2025-12-06T07:31:39.888034+00:00",
        "meta_object_name": "TIANMU-1 05",
        "meta_object_id": "2023-039C",
        "meta_epoch": "2025-12-05T06:16:27.582240",
        "meta_mean_motion": 15.40553764,
        "meta_eccentricity": 0.00043518,
        "meta_inclination": 97.5083,
        "meta_ra_of_asc_node": 141.3923,
        "meta_arg_of_pericenter": 99.3714,
        "meta_mean_anomaly": 260.8024,
        "meta_ephemeris_type": 0,
        "meta_classification_type": "U",
        "meta_norad_cat_id": 55975,
        "meta_element_set_no": 999,
        "meta_rev_at_epoch": 15089,
        "meta_bstar": 0.00059969679,
        "meta_mean_motion_dot": 0.00024333,
        "meta_mean_motion_ddot": 0,
        "tle_line1": "1 55975U 23039C   25339.26143035  .00024333  00000+0  59970-3 0  9991",
        "tle_line2": "2 55975  97.5083 141.3923 0004351  99.3714 260.8024 15.40553764150899"
      },
      "geometry": {
        "type": "Point",
        "coordinates": [
          120.47108019154739,
          70.60484406493136
        ]
      }
    },
    {
      "type": "Feature",
      "properties": {
        "norad_id": 55976,
        "name": "TIANMU-1 06",
        "group": "weather",
        "lat": 17.932159600797622,
        "lon": 140.48596375006977,
        "alt_km": 442.6270199103192,
        "timestamp": "2025-12-06T07:31:39.888044+00:00",
        "meta_object_name": "TIANMU-1 06",
        "meta_object_id": "2023-039D",
        "meta_epoch": "2025-12-05T06:30:52.191360",
        "meta_mean_motion": 15.40979718,
        "meta_eccentricity": 0.00047081,
        "meta_inclination": 97.5094,
        "meta_ra_of_asc_node": 141.8616,
        "meta_arg_of_pericenter": 94.8958,
        "meta_mean_anomaly": 265.2826,
        "meta_ephemeris_type": 0,
        "meta_classification_type": "U",
        "meta_norad_cat_id": 55976,
        "meta_element_set_no": 999,
        "meta_rev_at_epoch": 15091,
        "meta_bstar": 0.00060112914,
        "meta_mean_motion_dot": 0.0002474,
        "meta_mean_motion_ddot": 0,
        "tle_line1": "1 55976U 23039D   25339.27143740  .00024740  00000+0  60113-3 0  9999",
        "tle_line2": "2 55976  97.5094 141.8616 0004708  94.8958 265.2826 15.40979718150915"
      },
      "geometry": {
        "type": "Point",
        "coordinates": [
          140.48596375006977,
          17.932159600797622
        ]
      }
    },
    {
      "type": "Feature",
      "properties": {
        "norad_id": 56232,
        "name": "FENGYUN 3G",
        "group": "weather",
        "lat": 38.95472367652928,
        "lon": 37.83391831757234,
        "alt_km": 396.10549000477295,
        "timestamp": "2025-12-06T07:31:39.888054+00:00",
        "meta_object_name": "FENGYUN 3G",
        "meta_object_id": "2023-055A",
        "meta_epoch": "2025-12-05T07:49:50.794176",
        "meta_mean_motion": 15.52988249,
        "meta_eccentricity": 0.00092341,
        "meta_inclination": 49.995,
        "meta_ra_of_asc_node": 265.6926,
        "meta_arg_of_pericenter": 113.2663,
        "meta_mean_anomaly": 246.9277,
        "meta_ephemeris_type": 0,
        "meta_classification_type": "U",
        "meta_norad_cat_id": 56232,
        "meta_element_set_no": 999,
        "meta_rev_at_epoch": 14987,
        "meta_bstar": 0.00076234073,
        "meta_mean_motion_dot": 0.0004839,
        "meta_mean_motion_ddot": 0,
        "tle_line1": "1 56232U 23055A   25339.32628234  .00048390  00000+0  76234-3 0  9993",
        "tle_line2": "2 56232  49.9950 265.6926 0009234 113.2663 246.9277 15.52988249149871"
      },
      "geometry": {
        "type": "Point",
        "coordinates": [
          37.83391831757234,
          38.95472367652928
        ]
      }
    },
    {
      "type": "Feature",
      "properties": {
        "norad_id": 57166,
        "name": "METEOR-M2 3",
        "group": "weather",
        "lat": 78.70199550389597,
        "lon": -15.584046363197409,
        "alt_km": 802.714034676018,
        "timestamp": "2025-12-06T07:31:39.888064+00:00",
        "meta_object_name": "METEOR-M2 3",
        "meta_object_id": "2023-091A",
        "meta_epoch": "2025-12-05T07:31:57.692352",
        "meta_mean_motion": 14.24024714,
        "meta_eccentricity": 0.00043111,
        "meta_inclination": 98.6389,
        "meta_ra_of_asc_node": 32.9826,
        "meta_arg_of_pericenter": 28.9355,
        "meta_mean_anomaly": 331.2062,
        "meta_ephemeris_type": 0,
        "meta_classification_type": "U",
        "meta_norad_cat_id": 57166,
        "meta_element_set_no": 999,
        "meta_rev_at_epoch": 12692,
        "meta_bstar": 5.1340438e-05,
        "meta_mean_motion_dot": 7.4e-07,
        "meta_mean_motion_ddot": 0,
        "tle_line1": "1 57166U 23091A   25339.31386218  .00000074  00000+0  51340-4 0  9991",
        "tle_line2": "2 57166  98.6389  32.9826 0004311  28.9355 331.2062 14.24024714126927"
      },
      "geometry": {
        "type": "Point",
        "coordinates": [
          -15.584046363197409,
          78.70199550389597
        ]
      }
    },
    {
      "type": "Feature",
      "properties": {
        "norad_id": 57399,
        "name": "TIANMU-1 07",
        "group": "weather",
        "lat": 28.08307584153518,
        "lon": 26.390262110798336,
        "alt_km": 479.4336330439737,
        "timestamp": "2025-12-06T07:31:39.888077+00:00",
        "meta_object_name": "TIANMU-1 07",
        "meta_object_id": "2023-101A",
        "meta_epoch": "2025-12-05T07:49:39.042912",
        "meta_mean_motion": 15.27908782,
        "meta_eccentricity": 0.00056313,
        "meta_inclination": 97.2887,
        "meta_ra_of_asc_node": 29.3405,
        "meta_arg_of_pericenter": 100.2408,
        "meta_mean_anomaly": 259.9467,
        "meta_ephemeris_type": 0,
        "meta_classification_type": "U",
        "meta_norad_cat_id": 57399,
        "meta_element_set_no": 999,
        "meta_rev_at_epoch": 13202,
        "meta_bstar": 0.00045667079,
        "meta_mean_motion_dot": 0.00012381,
        "meta_mean_motion_ddot": 0,
        "tle_line1": "1 57399U 23101A   25339.32614633  .00012381  00000+0  45667-3 0  9995",
        "tle_line2": "2 57399  97.2887  29.3405 0005631 100.2408 259.9467 15.27908782132028"
      },
      "geometry": {
        "type": "Point",
        "coordinates": [
          26.390262110798336,
          28.08307584153518
        ]
      }
    }
  ]
}